{
    "links": {
        "self": "http://www.neowsapp.com/rest/v1/neo/3454893?api_key=iIulBulltgU6a56xZRHN4H3l9WmuAYTsLGpBGhQ2"
    },
    "id": "3454893",
    "neo_reference_id": "3454893",
    "name": "(2009 FX10)",
    "designation": "2009 FX10",
    "nasa_jpl_url": "http://ssd.jpl.nasa.gov/sbdb.cgi?sstr=3454893",
    "absolute_magnitude_h": 24.3,
    "estimated_diameter": {
        "kilometers": {
            "estimated_diameter_min": 0.0366906138,
            "estimated_diameter_max": 0.0820427065
        },
        "meters": {
            "estimated_diameter_min": 36.6906137531,
            "estimated_diameter_max": 82.0427064882
        },
        "miles": {
            "estimated_diameter_min": 0.0227984834,
            "estimated_diameter_max": 0.0509789586
        },
        "feet": {
            "estimated_diameter_min": 120.3760332259,
            "estimated_diameter_max": 269.1689931548
        }
    },
    "is_potentially_hazardous_asteroid": false,
    "close_approach_data": [
        {
            "close_approach_date": "2009-04-02",
            "close_approach_date_full": "2009-Apr-02 08:29",
            "epoch_date_close_approach": 1238660940000,
            "relative_velocity": {
                "kilometers_per_second": "7.765336585",
                "kilometers_per_hour": "27955.2117058639",
                "miles_per_hour": "17370.2814069019"
            },
            "miss_distance": {
                "astronomical": "0.0377534549",
                "lunar": "14.6860939561",
                "kilometers": "5647836.438181063",
                "miles": "3509402.8295141494"
            },
            "orbiting_body": "Earth"
        },
        {
            "close_approach_date": "2009-10-29",
            "close_approach_date_full": "2009-Oct-29 04:10",
            "epoch_date_close_approach": 1256789400000,
            "relative_velocity": {
                "kilometers_per_second": "8.3368303967",
                "kilometers_per_hour": "30012.5894279713",
                "miles_per_hour": "18648.6559142858"
            },
            "miss_distance": {
                "astronomical": "0.457651389",
                "lunar": "178.026390321",
                "kilometers": "68463672.99694143",
                "miles": "42541353.731514534"
            },
            "orbiting_body": "Earth"
        },
        {
            "close_approach_date": "2127-09-16",
            "close_approach_date_full": "2127-Sep-16 06:25",
            "epoch_date_close_approach": 4976749500000,
            "relative_velocity": {
                "kilometers_per_second": "17.8828714868",
                "kilometers_per_hour": "64378.3373526172",
                "miles_per_hour": "40002.1952289081"
            },
            "miss_distance": {
                "astronomical": "0.3144867113",
                "lunar": "122.3353306957",
                "kilometers": "47046542.153784931",
                "miles": "29233365.7251808078"
            },
            "orbiting_body": "Earth"
        },
        {
            "close_approach_date": "2181-03-13",
            "close_approach_date_full": "2181-Mar-13 21:12",
            "epoch_date_close_approach": 6664799520000,
            "relative_velocity": {
                "kilometers_per_second": "17.7874254545",
                "kilometers_per_hour": "64034.7316360279",
                "miles_per_hour": "39788.6919990641"
            },
            "miss_distance": {
                "astronomical": "0.3068773673",
                "lunar": "119.3752958797",
                "kilometers": "45908200.499287651",
                "miles": "28526033.0205295438"
            },
            "orbiting_body": "Earth"
        }
    ],
    "orbital_data": {
        "orbit_id": "7",
        "orbit_determination_date": "2017-04-06 09:00:56",
        "first_observation_date": "2009-03-21",
        "last_observation_date": "2009-03-27",
        "data_arc_in_days": 6,
        "observations_used": 22,
        "orbit_uncertainty": "8",
        "minimum_orbit_intersection": ".024239",
        "jupiter_tisserand_invariant": "5.257",
        "epoch_osculation": "2454913.5",
        "eccentricity": ".2963390682092938",
        "semi_major_axis": "1.198826979825925",
        "inclination": "1.928994810474792",
        "ascending_node_longitude": "55.51206453082363",
        "orbital_period": "479.4388127844914",
        "perihelion_distance": ".8435677096801489",
        "perihelion_argument": "204.8824772876517",
        "aphelion_distance": "1.554086249971702",
        "perihelion_time": "2454977.556292779610",
        "mean_anomaly": "311.9015465879162",
        "mean_motion": ".7508778813905094",
        "equinox": "J2000",
        "orbit_class": {
            "orbit_class_type": "APO",
            "orbit_class_description": "Near-Earth asteroid orbits which cross the Earth’s orbit similar to that of 1862 Apollo",
            "orbit_class_range": "a (semi-major axis) > 1.0 AU; q (perihelion) < 1.017 AU"
        }
    },
    "is_sentry_object": false
}